IRIDIUM 119             
1 42959U 17061E   24260.60521475  .00000073  00000+0  18860-4 0  9994
2 42959  86.3928 292.1039 0001918  92.3334 267.8081 14.34213410363283
IRIDIUM 132             
1 42961U 17061G   24260.56081460  .00000290  00000+0  96549-4 0  9998
2 42961  86.3929 292.1238 0002006 100.7966 259.3456 14.34214201363283
IRIDIUM 136             
1 42962U 17061H   24260.59252365  .00000936  00000+0  32720-3 0  9993
2 42962  86.3927 292.1141 0002092  89.3691 270.7744 14.34222847363302
IRIDIUM 139             
1 42963U 17061J   24260.59887281  .00000849  00000+0  29603-3 0  9994
2 42963  86.3928 292.1631 0001941  99.3362 260.8053 14.34214157363315
IRIDIUM 135             
1 43070U 17083A   24260.42076969  .00000373  00000+0  12616-3 0  9991
2 43070  86.3965 228.9196 0002672  89.7311 270.4191 14.34212530352599
IRIDIUM 138             
1 43071U 17083B   24260.44614397  .00001256  00000+0  44141-3 0  9996
2 43071  86.3953 228.6148 0002199  75.0235 285.1204 14.34213717352583
